FENGYUN 3C              
1 39260U 13052A   23096.45249426  .00000228  00000+0  13622-3 0  9995
2 39260  98.4339 114.3855 0011677 145.0280 215.1671 14.16017251493385
CASSIOPE                
1 39265U 13055A   23096.59898039  .00023393  00000+0  57864-3 0  9992
2 39265  80.9591 314.5032 0582004 163.8507 198.2152 14.48867241494602
ZACUBE-1 (TSHEPISOSAT)  
1 39417U 13066B   23096.52356370  .00004257  00000+0  49922-3 0  9997
2 39417  97.6789  60.7642 0055974 161.2416 199.0879 14.84351876506560
CINEMA-3 (KHUSAT-2)     
1 39426U 13066L   23096.75684517  .00003186  00000+0  48429-3 0  9990
2 39426  97.8255  29.5077 0102031  16.8947 343.5617 14.71207167502646
TRITON-1                
1 39427U 13066M   23096.73847632  .00004570  00000+0  69301-3 0  9998
2 39427  97.8340  25.3284 0110408  47.1849 313.8573 14.70500159502042
DELFI-N3XT              
1 39428U 13066N   23096.33831436  .00007640  00000+0  11119-2 0  9994
2 39428  97.8326  23.7692 0114096  60.5090 300.7441 14.71748751501564
GOMX-1                  
1 39430U 13066Q   23096.65032213  .00002870  00000+0  50668-3 0  9991
2 39430  97.7888 351.9496 0145649 199.1486 160.4193 14.61469598499090
BRITE-PL1 (LEM)         
1 39431U 13066R   23096.46159730  .00000850  00000+0  18766-3 0  9994
2 39431  97.6808 288.7904 0201025  40.5792 321.0192 14.47847256494750
ICUBE-1                 
1 39432U 13066S   23096.47969865  .00007120  00000+0  65576-3 0  9992
2 39432  97.4829  90.6201 0029801   7.8799 352.2884 14.94665750508428
HUMSAT-D                
1 39433U 13066T   23096.51799303  .00009214  00000+0  77765-3 0  9995
2 39433  97.4520  98.5633 0026715 336.6504  23.3503 14.98064079509023
VELOX-PII               
1 39438U 13066Y   23096.41957077  .00003414  00000+0  43598-3 0  9996
2 39438  97.7353  52.3120 0066020 221.2043 138.4176 14.80549725504323
FIRST-MOVE              
1 39439U 13066Z   23096.38878523  .00009930  00000+0  10447-2 0  9996
2 39439  97.6750  64.0909 0058721 152.8792 207.5514 14.88314529505547
CUBEBUG-2 (LO-74)       
1 39440U 13066AA  23096.46362992  .00004039  00000+0  53007-3 0  9990
2 39440  97.7664  47.6141 0074239 260.4231  98.8586 14.78912250503558
NEE-02 KRYSAOR          
1 39441U 13066AB  23096.82168394  .00002977  00000+0  40873-3 0  9997
2 39441  97.7771  44.8978 0077005 275.5190  83.7241 14.77091017504471
FUNCUBE-1 (AO-73)       
1 39444U 13066AE  23096.69983536  .00004927  00000+0  55609-3 0  9998
2 39444  97.6655  63.4242 0054823 146.7395 213.7287 14.85890234505613
HINCUBE                 
1 39445U 13066AF  23096.45652664  .00005578  00000+0  63259-3 0  9991
2 39445  97.6668  62.9702 0054848 150.0097 210.4280 14.85640712504921
UWE-3                   
1 39446U 13066AG  23096.44688662  .00003700  00000+0  46162-3 0  9997
2 39446  97.7282  53.8126 0065076 212.3013 147.4208 14.81507097503808
AIST-1 (RS-41)          
1 39492U 13078C   23096.35791339  .00002448  00000+0  25449-3 0  9990
2 39492  82.4189 316.2163 0018113 211.5314 148.4814 14.89399166503367
SPROUT                  
1 39770U 14029E   23096.35379976  .00030579  00000+0  25169-2 0  9999
2 39770  97.9616 221.7228 0009158 190.8476 169.2346 14.99005619481387
UNISAT-6                
1 40012U 14033C   23096.56608106  .00003084  00000+0  44102-3 0  9998
2 40012  97.6685 274.1813 0054787 289.0808  70.4474 14.76320966473208
BUGSAT-1 (TITA)         
1 40014U 14033E   23096.87766914  .00005504  00000+0  45709-3 0  9999
2 40014  98.1469 112.6620 0029853 141.4376 218.8986 14.98855594480056
DUCHIFAT-1              
1 40021U 14033M   23096.45290038  .00009841  00000+0  86479-3 0  9997
2 40021  98.0529  58.1998 0012449 141.5293 218.6817 14.96718713478455
NANOSATC-BR1            
1 40024U 14033Q   23096.39260879  .00007500  00000+0  69193-3 0  9997
2 40024  98.0210  49.8033 0011543 151.6572 208.5278 14.94904480477687
QB50P1                  
1 40025U 14033R   23096.38244993  .00006524  00000+0  63051-3 0  9998
2 40025  97.9912  41.9292 0011734 162.8275 197.3343 14.93108630477423
DTUSAT-2                
1 40030U 14033W   23096.35648867  .00005634  00000+0  55614-3 0  9996
2 40030  97.9629  36.0380 0011320 160.2784 199.8875 14.92332402477281
QB50P2                  
1 40032U 14033Y   23096.39945179  .00005372  00000+0  53051-3 0  9990
2 40032  97.9635  36.0987 0011209 160.2221 199.9434 14.92337573477269
POLYITAN-1              
1 40042U 14033AJ  23096.41979112  .00007314  00000+0  69489-3 0  9998
2 40042  98.0031  43.6629 0013718 154.9128 205.2761 14.93728464477327
TIGRISAT                
1 40043U 14033AK  23096.54523565  .00002426  00000+0  34933-3 0  9995
2 40043  97.6615 275.2308 0056788 286.5069  72.9908 14.76135318472843
AISAT                   
1 40054U 14034B   23096.52597697  .00007016  00000+0  87936-3 0  9994
2 40054  98.3686 285.3817 0012446  97.7544 262.5081 14.82496956472845
CANX-4                  
1 40055U 14034C   23096.79271043  .00001969  00000+0  29168-3 0  9992
2 40055  98.3850 269.0291 0014733 141.7575 218.4682 14.76285093472016
CANX-5                  
1 40056U 14034D   23096.59632331  .00002016  00000+0  29833-3 0  9995
2 40056  98.3852 268.8095 0014725 142.5879 217.6357 14.76286643462768
VELOX-I                 
1 40057U 14034E   23096.75158894  .00006454  00000+0  83337-3 0  9990
2 40057  98.3736 286.5813 0011000 110.9788 249.2559 14.81293012472856
METEOR-M 2              
1 40069U 14037A   23096.86062992  .00000115  00000+0  72480-4 0  9997
2 40069  98.4258 106.1411 0005531 177.3142 182.8065 14.20762936453529
DX1                     
1 40071U 14037C   23096.79989320  .00002464  00000+0  31220-3 0  9990
2 40071  98.3703 344.5552 0009553  93.3354 266.8942 14.82725798472790
UKUBE-1                 
1 40074U 14037F   23096.70184903  .00007110  00000+0  78834-3 0  9993
2 40074  98.3497 357.4559 0005432  59.7167 300.4568 14.87600443473629
FIREBIRD 3              
1 40377U 15003B   23096.34077730  .00102345  00000+0  14365-2 0  9996
2 40377  99.0767  35.0219 0064126 101.0514 259.7955 15.53937719453411
FIREBIRD 4              
1 40378U 15003C   23096.41073672  .00102361  00000+0  14290-2 0  9991
2 40378  99.0789  35.4125 0064221 100.0066 260.8437 15.54073781453434
GRIFEX                  
1 40379U 15003D   23096.81401401  .00032187  00000+0  81485-3 0  9990
2 40379  99.0796  16.7240 0091930 155.2178 205.3518 15.35376967452418
CP10 (EXOCUBE)          
1 40380U 15003E   23096.28067627  .00022399  00000+0  68349-3 0  9999
2 40380  99.0869   6.8349 0104094 188.4005 171.5491 15.28705759451728
DEORBITSAIL             
1 40719U 15032E   23096.61146446  .00005117  00000+0  66874-3 0  9991
2 40719  97.7448 329.8858 0016139 127.9343 232.3331 14.80790512417224
XW-2A                   
1 40903U 15049E   23096.71349653  .00460002  90600-4  10149-2 0  9991
2 40903  97.1197 164.6004 0003946 182.5936 276.3946 15.98035136425110
XW-2C                   
1 40906U 15049H   23096.87181022  .00016885  00000+0  68621-3 0  9990
2 40906  97.4968 103.8567 0014185  59.2286  12.7363 15.24537171417522
XW-2D                   
1 40907U 15049J   23096.84411226  .00019947  00000+0  77322-3 0  9990
2 40907  97.4949 104.1884 0013128  53.8463  30.2478 15.26095693417590
LILACSAT-2              
1 40908U 15049K   23096.52118929  .00008911  00000+0  43053-3 0  9993
2 40908  97.5262  99.8242 0016356  80.9791  36.6504 15.18755176416914
XW-2E                   
1 40909U 15049L   23096.50404653  .00036160  00000+0  10954-2 0  9994
2 40909  97.4590 109.4634 0010529  33.6357 118.6027 15.34015467418137
XW-2F                   
1 40910U 15049M   23096.78726909  .00035606  00000+0  10984-2 0  9994
2 40910  97.4681 108.9664 0011327  33.2520  55.4634 15.33433447417932
XW-2B                   
1 40911U 15049N   23096.82922632  .00019698  00000+0  76808-3 0  9992
2 40911  97.4930 104.6516 0013021  55.3402  22.8008 15.25903448417472
KAITUO 1B               
1 40912U 15049P   23096.49281184  .00043770  00000+0  11525-2 0  9998
2 40912  97.4246 113.1237 0008810 355.9200 161.5113 15.38372586418569
LAPAN-A2                
1 40931U 15052B   23096.52401873  .00001737  00000+0  15071-3 0  9994
2 40931   5.9980 238.1336 0013858 358.7653   1.2395 14.77143481406749
LQSAT                   
1 40958U 15057A   23096.69033563  .00001264  00000+0  19993-3 0  9995
2 40958  97.7112 134.1786 0019372  94.5451 265.7963 14.73786835403169
ATHENOXAT 1             
1 41168U 15077C   23096.26414990  .00106889  00000+0  23313-2 0  9990
2 41168  14.9933  59.1938 0004564  36.6712   0.8230 15.42365198405141
GALASSIA                
1 41170U 15077E   23096.23294028  .00045112  00000+0  13245-2 0  9992
2 41170  14.9881  59.1283 0006598  88.8689 271.2390 15.33191385404976
VELOX-II                
1 41171U 15077F   23096.76435744  .00024045  00000+0  91974-3 0  9991
2 41171  14.9899 148.0054 0006865 250.4865 109.4715 15.24263395404334
CHUBUSAT-2              
1 41338U 16012B   23095.98720708  .00005386  00000+0  38019-3 0  9994
2 41338  31.0029 319.2060 0012059 179.3906 180.6746 15.03381695391500
CHUBUSAT-3              
1 41339U 16012C   23096.78830328  .00005410  00000+0  38275-3 0  9996
2 41339  31.0128 311.0916 0011926 195.6154 247.5711 15.03303069391626
HORYU-4                 
1 41340U 16012D   23096.54342419  .00008933  00000+0  57866-3 0  9991
2 41340  31.0038 283.7837 0011346 246.1742 113.7706 15.06794810391906
OUFTI-1                 
1 41458U 16025C   23096.51069443  .00030702  00000+0  92975-3 0  9994
2 41458  98.1892 292.9487 0109255 341.3032  18.4205 15.28344715382081
E-ST@R-II               
1 41459U 16025D   23096.78929829  .00031377  00000+0  10134-2 0  9992
2 41459  98.1924 291.0702 0115096 347.2731 134.0789 15.25773724381993
AAUSAT 4                
1 41460U 16025E   23096.53407916  .00083673  00000+0  16852-2 0  9994
2 41460  98.1688 301.1134 0077732 308.2128 104.3118 15.43005715382675
